     3.00           N                   E                   RINEX VERSION / TYPE
BRD_USR             ESA                 20190104 101826  UTCPGM / RUN BY / DATE
 GAL   4.4750E+01 -1.5625E-02 -2.1362E-03  0.0000E+00       IONOSPHERIC CORR
GAUT  2.7939677238E-09-1.776356839E-15 432000 2034 GSTB   0 TIME SYSTEM CORR
GPGA -3.0559021980E-09-1.154631946E-14 432000 2034 GSTB   0 TIME SYSTEM CORR
                                                            END OF HEADER
E26 2019 01 04 07 40 00 5.059004062787E-03-4.328626346251E-11 0.000000000000E+00
     1.260000000000E+02-2.143750000000E+02 2.822260415617E-09-1.242949645568E+00
    -9.868294000626E-06 3.239413490519E-04 6.638467311859E-06 5.440612964630E+03
     4.596000000000E+05 1.117587089539E-08-7.357275463940E-01 9.313225746155E-09
     9.783757614604E-01 2.070937500000E+02-2.121230305002E+00-5.500943422088E-09
    -2.317953694933E-10 5.210000000000E+02 2.034000000000E+03 0.000000000000E+00
     3.120000000000E+00 0.000000000000E+00 1.396983861923E-09 1.396983861923E-09
     4.608250000000E+05 0.000000000000E+00 0.000000000000E+00 0.000000000000E+00
E27 2019 01 04 07 40 00 5.566912586801E-04-7.659650691494E-12 0.000000000000E+00
     1.260000000000E+02 2.106875000000E+02 2.381170613885E-09 4.525359143487E-01
     9.866431355476E-06 2.100107958540E-04 8.670613169670E-06 5.440635793686E+03
     4.596000000000E+05 5.587935447693E-09-2.827680283160E+00-5.587935447693E-08
     9.898848554432E-01 1.654062500000E+02-9.243334346777E-01-5.303435195078E-09
     2.446530479243E-10 5.210000000000E+02 2.034000000000E+03 0.000000000000E+00
     3.120000000000E+00 0.000000000000E+00-2.793967723846E-09-3.492459654808E-09
     4.608250000000E+05 0.000000000000E+00 0.000000000000E+00 0.000000000000E+00
E30 2019 01 04 07 30 00 5.216139834374E-03-3.048228336411E-11 0.000000000000E+00
     1.250000000000E+02 2.061875000000E+02 2.373313143733E-09-2.695963159401E-01
     9.628012776375E-06 2.967086620629E-04 8.128583431244E-06 5.440626504898E+03
     4.590000000000E+05 5.774199962616E-08-2.821668152136E+00 1.676380634308E-08
     9.878993815631E-01 1.786250000000E+02 4.886701635309E-01-5.273791103139E-09
     2.285809498855E-10 5.210000000000E+02 2.034000000000E+03 0.000000000000E+00
     3.120000000000E+00 0.000000000000E+00-3.026798367500E-09-3.725290298462E-09
     4.608250000000E+05 0.000000000000E+00 0.000000000000E+00 0.000000000000E+00
E31 2019 01 04 07 40 00 9.414296946488E-04-9.634959496907E-12 0.000000000000E+00
     1.260000000000E+02 1.782812500000E+02 2.402957235671E-09-1.291949162068E+00
     8.368864655495E-06 2.567614428699E-04 9.542331099510E-06 5.440632736206E+03
     4.596000000000E+05 0.000000000000E+00-2.827728122044E+00 7.450580596924E-09
     9.898880343642E-01 1.495312500000E+02-1.536022559242E+00-5.235932383315E-09
     2.078658013021E-10 5.210000000000E+02 2.034000000000E+03 0.000000000000E+00
     3.120000000000E+00 0.000000000000E+00 0.000000000000E+00 0.000000000000E+00
     4.608250000000E+05 0.000000000000E+00 0.000000000000E+00 0.000000000000E+00
E33 2019 01 04 07 40 00 8.478643139824E-04 7.105427357601E-14 0.000000000000E+00
     1.260000000000E+02-2.140312500000E+02 2.699040997320E-09-2.633104825991E+00
    -9.845942258835E-06 3.528856905177E-04 5.921348929405E-06 5.440604885101E+03
     4.596000000000E+05 1.862645149231E-08-7.447078284817E-01 3.725290298462E-09
     9.852550108431E-01 2.258125000000E+02-1.523048468374E+00-5.456298705314E-09
    -2.321525272275E-10 5.210000000000E+02 2.034000000000E+03 0.000000000000E+00
     3.120000000000E+00 4.550000000000E+02-7.916241884232E-09-8.847564458847E-09
     4.608250000000E+05 0.000000000000E+00 0.000000000000E+00 0.000000000000E+00
E36 2019 01 04 07 40 00 7.637111702934E-04-4.419575816428E-12 0.000000000000E+00
     1.260000000000E+02-1.844687500000E+02 2.680468795142E-09 1.421388703779E+00
    -8.596107363701E-06 3.212856827304E-04 6.422400474548E-06 5.440606662750E+03
     4.596000000000E+05-2.421438694000E-08-7.446816539514E-01 5.587935447693E-09
     9.852632499977E-01 2.167500000000E+02-1.648789459133E+00-5.424511666970E-09
    -2.182233755938E-10 5.210000000000E+02 2.034000000000E+03 0.000000000000E+00
     3.120000000000E+00 4.550000000000E+02 9.313225746155E-10 1.164153218269E-09
     4.608250000000E+05 0.000000000000E+00 0.000000000000E+00 0.000000000000E+00
E15 2019 01 04 07 40 00 9.239052888006E-04-1.065814103640E-12 0.000000000000E+00
     1.260000000000E+02-2.012187500000E+02 2.673682798192E-09-9.955013285690E-02
    -9.335577487946E-06 3.813770599663E-04 7.499009370804E-06 5.440604385376E+03
     4.596000000000E+05 3.166496753693E-08-7.446828125825E-01 1.303851604462E-08
     9.852167072590E-01 1.904687500000E+02-1.700768408722E+00-5.468442068276E-09
    -2.414386283166E-10 2.580000000000E+02 2.034000000000E+03 0.000000000000E+00
     3.120000000000E+00 5.600000000000E+01 1.396983861923E-09 0.000000000000E+00
     4.608500000000E+05 0.000000000000E+00 0.000000000000E+00 0.000000000000E+00
E19 2019 01 04 07 40 00-9.382842108607E-06 3.126388037344E-13 0.000000000000E+00
     1.260000000000E+02 7.218750000000E+00 3.707297280955E-09-2.094968826192E+00
     2.700835466385E-07 1.416718587279E-04 3.952533006668E-06 5.440601736069E+03
     4.596000000000E+05 1.676380634308E-08 1.362548264633E+00-7.450580596924E-09
     9.579193815072E-01 2.514687500000E+02 2.202274721650E+00-5.743810681341E-09
     6.393123442110E-11 2.580000000000E+02 2.034000000000E+03 0.000000000000E+00
     3.120000000000E+00 0.000000000000E+00-8.847564458847E-09 0.000000000000E+00
     4.608500000000E+05 0.000000000000E+00 0.000000000000E+00 0.000000000000E+00
E31 2019 01 04 07 40 00 9.414292871952E-04-9.663381206337E-12 0.000000000000E+00
     1.260000000000E+02 1.782812500000E+02 2.402957235671E-09-1.291949162068E+00
     8.368864655495E-06 2.567614428699E-04 9.542331099510E-06 5.440632736206E+03
     4.596000000000E+05 0.000000000000E+00-2.827728122044E+00 7.450580596924E-09
     9.898880343642E-01 1.495312500000E+02-1.536022559242E+00-5.235932383315E-09
     2.078658013021E-10 2.580000000000E+02 2.034000000000E+03 0.000000000000E+00
     3.120000000000E+00 0.000000000000E+00 0.000000000000E+00 0.000000000000E+00
     4.608500000000E+05 0.000000000000E+00 0.000000000000E+00 0.000000000000E+00
E15 2019 01 04 07 40 00 9.239055798389E-04-1.065814103640E-12 0.000000000000E+00
     1.260000000000E+02-2.012187500000E+02 2.673682798192E-09-9.955013285690E-02
    -9.335577487946E-06 3.813770599663E-04 7.499009370804E-06 5.440604385376E+03
     4.596000000000E+05 3.166496753693E-08-7.446828125825E-01 1.303851604462E-08
     9.852167072590E-01 1.904687500000E+02-1.700768408722E+00-5.468442068276E-09
    -2.414386283166E-10 5.210000000000E+02 2.034000000000E+03 0.000000000000E+00
     3.120000000000E+00 4.550000000000E+02 1.396983861923E-09 1.396983861923E-09
     4.608550000000E+05 0.000000000000E+00 0.000000000000E+00 0.000000000000E+00
E26 2019 01 04 07 40 00 5.059004062787E-03-4.328626346251E-11 0.000000000000E+00
     1.260000000000E+02-2.143750000000E+02 2.822260415617E-09-1.242949645568E+00
    -9.868294000626E-06 3.239413490519E-04 6.638467311859E-06 5.440612964630E+03
     4.596000000000E+05 1.117587089539E-08-7.357275463940E-01 9.313225746155E-09
     9.783757614604E-01 2.070937500000E+02-2.121230305002E+00-5.500943422088E-09
    -2.317953694933E-10 5.210000000000E+02 2.034000000000E+03 0.000000000000E+00
     3.120000000000E+00 0.000000000000E+00 1.396983861923E-09 1.396983861923E-09
     4.608550000000E+05 0.000000000000E+00 0.000000000000E+00 0.000000000000E+00
E27 2019 01 04 07 40 00 5.566912586801E-04-7.659650691494E-12 0.000000000000E+00
     1.260000000000E+02 2.106875000000E+02 2.381170613885E-09 4.525359143487E-01
     9.866431355476E-06 2.100107958540E-04 8.670613169670E-06 5.440635793686E+03
     4.596000000000E+05 5.587935447693E-09-2.827680283160E+00-5.587935447693E-08
     9.898848554432E-01 1.654062500000E+02-9.243334346777E-01-5.303435195078E-09
     2.446530479243E-10 5.210000000000E+02 2.034000000000E+03 0.000000000000E+00
     3.120000000000E+00 0.000000000000E+00-2.793967723846E-09-3.492459654808E-09
     4.609750000000E+05 0.000000000000E+00 0.000000000000E+00 0.000000000000E+00
E27 2019 01 04 07 40 00 5.566913168877E-04-7.659650691494E-12 0.000000000000E+00
     1.260000000000E+02 2.106875000000E+02 2.381170613885E-09 4.525359143487E-01
     9.866431355476E-06 2.100107958540E-04 8.670613169670E-06 5.440635793686E+03
     4.596000000000E+05 5.587935447693E-09-2.827680283160E+00-5.587935447693E-08
     9.898848554432E-01 1.654062500000E+02-9.243334346777E-01-5.303435195078E-09
     2.446530479243E-10 2.580000000000E+02 2.034000000000E+03 0.000000000000E+00
     3.120000000000E+00 0.000000000000E+00-2.793967723846E-09 0.000000000000E+00
     4.610000000000E+05 0.000000000000E+00 0.000000000000E+00 0.000000000000E+00
E08 2019 01 04 07 40 00 6.430207693484E-03-7.446487870766E-12 0.000000000000E+00
     1.260000000000E+02 8.125000000000E-01 3.638722995990E-09 1.872591011766E+00
    -8.940696716309E-08 2.371697919443E-04 4.233792424202E-06 5.440601629257E+03
     4.596000000000E+05 2.235174179077E-08 1.357194941211E+00-5.587935447693E-09
     9.581332381867E-01 2.505000000000E+02 5.128148935073E-01-5.699523122301E-09
    -3.785871982478E-11 5.210000000000E+02 2.034000000000E+03 0.000000000000E+00
     3.120000000000E+00 0.000000000000E+00-8.381903171539E-09-9.778887033463E-09
     4.613950000000E+05 0.000000000000E+00 0.000000000000E+00 0.000000000000E+00
